{
"type": "FeatureCollection",
"name": "OSMP_Trailheads",
"crs": { "type": "name", "properties": { "name": "urn:ogc:def:crs:OGC:1.3:CRS84" } },
"features": [
{ "type": "Feature", "properties": { "ACCESSNAME": "Flagstaff Summit West", "ACCESSID": "279", "ACCESSTYPE": "TH", "CLASS": "T3", "FEE": "Yes", "AKA": null, "RESTROOMS": "Yes", "PICNIC": "Yes", "FISHING": "No", "ADDRESS": "621 Flagstaff Summit Rd", "BIKERACK": "No", "BIKETRAIL": "No", "DOGTUBE": 1, "GRILLS": "Yes", "TRASHCANS": 4, "PARKSPACES": 12, "HORSETRAILERPARKING": "Not Recommended", "RECYCLEBIN": "Yes", "DOGCOMPOST": "No", "THURL": "https://bouldercolorado.gov/trailhead/flagstaff-summit-west", "FOODCOMPOST": "Yes", "MAINTENANCEZONE": "South", "THLEASH": "Yes", "OBJECTID": 19 }, "geometry": { "type": "Point", "coordinates": [ -105.306512591898937, 40.005020786158539, 0.000046284909331 ] } },
{ "type": "Feature", "properties": { "ACCESSNAME": "Flagstaff Summit East", "ACCESSID": "277", "ACCESSTYPE": "TH", "CLASS": "T3", "FEE": "Yes", "AKA": null, "RESTROOMS": "Yes", "PICNIC": "Yes", "FISHING": "No", "ADDRESS": "790 Flagstaff Summit Rd", "BIKERACK": "Yes", "BIKETRAIL": "No", "DOGTUBE": 1, "GRILLS": "Yes", "TRASHCANS": 6, "PARKSPACES": 56, "HORSETRAILERPARKING": "Not Recommended", "RECYCLEBIN": "Yes", "DOGCOMPOST": "No", "THURL": "https://bouldercolorado.gov/trailhead/flagstaff-summit-east", "FOODCOMPOST": "No", "MAINTENANCEZONE": "South", "THLEASH": "Yes", "OBJECTID": 20 }, "geometry": { "type": "Point", "coordinates": [ -105.303488565893304, 40.004187737067504, 6853.6086462849089 ] } },
{ "type": "Feature", "properties": { "ACCESSNAME": "East Boulder Trail at White Rocks", "ACCESSID": "502a", "ACCESSTYPE": "TH", "CLASS": "T1", "FEE": "No", "AKA": null, "RESTROOMS": "No", "PICNIC": "No", "FISHING": "No", "ADDRESS": "4705 95th St", "BIKERACK": "Yes", "BIKETRAIL": "Yes", "DOGTUBE": 0, "GRILLS": "No", "TRASHCANS": 1, "PARKSPACES": 6, "HORSETRAILERPARKING": "Not Recommended", "RECYCLEBIN": "No", "DOGCOMPOST": "No", "THURL": "https://bouldercolorado.gov/trailhead/east-boulder-trail-white-rocks", "FOODCOMPOST": "No", "MAINTENANCEZONE": "North", "THLEASH": "Yes", "OBJECTID": 21 }, "geometry": { "type": "Point", "coordinates": [ -105.131779303358513, 40.062034755912883, 5182.780646284911199 ] } },
{ "type": "Feature", "properties": { "ACCESSNAME": "Buckingham Park", "ACCESSID": "417", "ACCESSTYPE": "TH", "CLASS": "T3", "FEE": "No", "AKA": null, "RESTROOMS": "Yes", "PICNIC": "Yes", "FISHING": "Yes", "ADDRESS": "2500 Left-hand Canyon Dr", "BIKERACK": "Yes", "BIKETRAIL": "No", "DOGTUBE": 0, "GRILLS": "Yes", "TRASHCANS": 2, "PARKSPACES": 25, "HORSETRAILERPARKING": "Possible", "RECYCLEBIN": "Yes", "DOGCOMPOST": "No", "THURL": "https://bouldercolorado.gov/trailhead/buckingham-park", "FOODCOMPOST": "Yes", "MAINTENANCEZONE": "North", "THLEASH": "Yes", "OBJECTID": 22 }, "geometry": { "type": "Point", "coordinates": [ -105.306433741782968, 40.111297870027933, 5949.464646284908667 ] } },
{ "type": "Feature", "properties": { "ACCESSNAME": "The Peoples' Crossing", "ACCESSID": "286", "ACCESSTYPE": "TH", "CLASS": "T2", "FEE": "No", "AKA": null, "RESTROOMS": "No", "PICNIC": "Yes", "FISHING": "Yes", "ADDRESS": "101 Pearl St", "BIKERACK": "Yes", "BIKETRAIL": "No", "DOGTUBE": 1, "GRILLS": "No", "TRASHCANS": 2, "PARKSPACES": 27, "HORSETRAILERPARKING": "Not Recommended", "RECYCLEBIN": "Yes", "DOGCOMPOST": "No", "THURL": "https://bouldercolorado.gov/trailhead/peoples-crossing", "FOODCOMPOST": "Yes", "MAINTENANCEZONE": "North", "THLEASH": "Yes", "OBJECTID": 24 }, "geometry": { "type": "Point", "coordinates": [ -105.295324303218209, 40.014034266207503, 5416.816746284908731 ] } },
{ "type": "Feature", "properties": { "ACCESSNAME": "Centennial", "ACCESSID": "308", "ACCESSTYPE": "TH", "CLASS": "T3", "FEE": "No", "AKA": null, "RESTROOMS": "Yes", "PICNIC": "Yes", "FISHING": "No", "ADDRESS": "301 Sunshine Canyon Rd", "BIKERACK": "Yes", "BIKETRAIL": "No", "DOGTUBE": 0, "GRILLS": "No", "TRASHCANS": 2, "PARKSPACES": 33, "HORSETRAILERPARKING": "Not Recommended", "RECYCLEBIN": "Yes", "DOGCOMPOST": "Yes", "THURL": "https://bouldercolorado.gov/trailhead/centennial", "FOODCOMPOST": "Yes", "MAINTENANCEZONE": "North", "THLEASH": "Yes", "OBJECTID": 25 }, "geometry": { "type": "Point", "coordinates": [ -105.297839269152973, 40.020072866755442, 5552.493946284910635 ] } },
{ "type": "Feature", "properties": { "ACCESSNAME": "Teller Farm South", "ACCESSID": "503a", "ACCESSTYPE": "TH", "CLASS": "T3", "FEE": "No", "AKA": null, "RESTROOMS": "Yes", "PICNIC": "Yes", "FISHING": "Yes", "ADDRESS": "8331 Arapahoe", "BIKERACK": "Yes", "BIKETRAIL": "Yes", "DOGTUBE": 0, "GRILLS": "No", "TRASHCANS": 2, "PARKSPACES": 31, "HORSETRAILERPARKING": "Possible", "RECYCLEBIN": "Yes", "DOGCOMPOST": "Yes", "THURL": "https://bouldercolorado.gov/trailhead/teller-farm-south", "FOODCOMPOST": "Yes", "MAINTENANCEZONE": "North", "THLEASH": "Yes", "OBJECTID": 26 }, "geometry": { "type": "Point", "coordinates": [ -105.158756500583166, 40.021619497727116, 5207.397246284908761 ] } },
{ "type": "Feature", "properties": { "ACCESSNAME": "Teller Farm North", "ACCESSID": "503", "ACCESSTYPE": "TH", "CLASS": "T2", "FEE": "No", "AKA": null, "RESTROOMS": "No", "PICNIC": "No", "FISHING": "Yes", "ADDRESS": "8990 Valmont", "BIKERACK": "Yes", "BIKETRAIL": "Yes", "DOGTUBE": 0, "GRILLS": "No", "TRASHCANS": 1, "PARKSPACES": 35, "HORSETRAILERPARKING": "Possible", "RECYCLEBIN": "No", "DOGCOMPOST": "Yes", "THURL": "https://bouldercolorado.gov/trailhead/teller-farm-north", "FOODCOMPOST": "No", "MAINTENANCEZONE": "North", "THLEASH": "Yes", "OBJECTID": 28 }, "geometry": { "type": "Point", "coordinates": [ -105.142532415934156, 40.039760956210529, 5110.919746284911525 ] } },
{ "type": "Feature", "properties": { "ACCESSNAME": "Cottonwood", "ACCESSID": "507", "ACCESSTYPE": "TH", "CLASS": "T1", "FEE": "No", "AKA": null, "RESTROOMS": "No", "PICNIC": "No", "FISHING": "No", "ADDRESS": "5102 Independence Rd", "BIKERACK": "Yes", "BIKETRAIL": "Yes", "DOGTUBE": 0, "GRILLS": "No", "TRASHCANS": 1, "PARKSPACES": 12, "HORSETRAILERPARKING": "Possible", "RECYCLEBIN": "No", "DOGCOMPOST": "Yes", "THURL": "https://bouldercolorado.gov/trailhead/cottonwood", "FOODCOMPOST": "No", "MAINTENANCEZONE": "North", "THLEASH": "Yes", "OBJECTID": 30 }, "geometry": { "type": "Point", "coordinates": [ -105.236969849096226, 40.039976085382882, 5280.069746284909343 ] } },
{ "type": "Feature", "properties": { "ACCESSNAME": "Left Hand", "ACCESSID": "408", "ACCESSTYPE": "TH", "CLASS": "T1", "FEE": "No", "AKA": null, "RESTROOMS": "No", "PICNIC": "No", "FISHING": "No", "ADDRESS": "3850 Neva Rd", "BIKERACK": "Yes", "BIKETRAIL": "Yes", "DOGTUBE": 1, "GRILLS": "No", "TRASHCANS": 1, "PARKSPACES": 36, "HORSETRAILERPARKING": "Possible", "RECYCLEBIN": "No", "DOGCOMPOST": "No", "THURL": "https://bouldercolorado.gov/trailhead/left-hand", "FOODCOMPOST": "No", "MAINTENANCEZONE": "North", "THLEASH": "Yes", "OBJECTID": 31 }, "geometry": { "type": "Point", "coordinates": [ -105.265761846868244, 40.104821438267457, 5370.230046284908894 ] } },
{ "type": "Feature", "properties": { "ACCESSNAME": "Boulder Valley Ranch", "ACCESSID": "409", "ACCESSTYPE": "TH", "CLASS": "T1", "FEE": "No", "AKA": "Sage", "RESTROOMS": "Yes", "PICNIC": "No", "FISHING": "No", "ADDRESS": "3900 Longhorn Rd", "BIKERACK": "Yes", "BIKETRAIL": "Yes", "DOGTUBE": 0, "GRILLS": "No", "TRASHCANS": 1, "PARKSPACES": 18, "HORSETRAILERPARKING": "Possible", "RECYCLEBIN": "Yes", "DOGCOMPOST": "Yes", "THURL": "https://bouldercolorado.gov/trailhead/boulder-valley-ranch", "FOODCOMPOST": "No", "MAINTENANCEZONE": "North", "THLEASH": "Yes", "OBJECTID": 32 }, "geometry": { "type": "Point", "coordinates": [ -105.262799076662176, 40.079827965717413, 5336.518946284908452 ] } },
{ "type": "Feature", "properties": { "ACCESSNAME": "Eagle", "ACCESSID": "410", "ACCESSTYPE": "TH", "CLASS": "T1", "FEE": "No", "AKA": null, "RESTROOMS": "No", "PICNIC": "No", "FISHING": "No", "ADDRESS": "5797 51st St", "BIKERACK": "Yes", "BIKETRAIL": "Yes", "DOGTUBE": 0, "GRILLS": "No", "TRASHCANS": 1, "PARKSPACES": 24, "HORSETRAILERPARKING": "Possible", "RECYCLEBIN": "Yes", "DOGCOMPOST": "Yes", "THURL": "https://bouldercolorado.gov/trailhead/eagle", "FOODCOMPOST": "No", "MAINTENANCEZONE": "North", "THLEASH": "Yes", "OBJECTID": 33 }, "geometry": { "type": "Point", "coordinates": [ -105.23580609594859, 40.080295762019979, 5227.831846284909261 ] } },
{ "type": "Feature", "properties": { "ACCESSNAME": "Four Mile Creek", "ACCESSID": "403", "ACCESSTYPE": "TH", "CLASS": "T1", "FEE": "No", "AKA": null, "RESTROOMS": "No", "PICNIC": "No", "FISHING": "No", "ADDRESS": "420 Lee Hill Rd", "BIKERACK": "Yes", "BIKETRAIL": "Yes", "DOGTUBE": 1, "GRILLS": "No", "TRASHCANS": 1, "PARKSPACES": 20, "HORSETRAILERPARKING": "Possible", "RECYCLEBIN": "No", "DOGCOMPOST": "No", "THURL": "https://bouldercolorado.gov/trailhead/four-mile-creek", "FOODCOMPOST": "No", "MAINTENANCEZONE": "North", "THLEASH": "Yes", "OBJECTID": 34 }, "geometry": { "type": "Point", "coordinates": [ -105.28894864046336, 40.062717182742105, 5622.127446284910548 ] } },
{ "type": "Feature", "properties": { "ACCESSNAME": "Foothills", "ACCESSID": "401", "ACCESSTYPE": "TH", "CLASS": "T1", "FEE": "No", "AKA": null, "RESTROOMS": "No", "PICNIC": "No", "FISHING": "No", "ADDRESS": "5273 North Broadway", "BIKERACK": "Yes", "BIKETRAIL": "Yes", "DOGTUBE": 1, "GRILLS": "No", "TRASHCANS": 1, "PARKSPACES": 17, "HORSETRAILERPARKING": "Possible", "RECYCLEBIN": "No", "DOGCOMPOST": "No", "THURL": "https://bouldercolorado.gov/trailhead/foothills", "FOODCOMPOST": "No", "MAINTENANCEZONE": "North", "THLEASH": "Yes", "OBJECTID": 35 }, "geometry": { "type": "Point", "coordinates": [ -105.282458226880365, 40.070482582414087, 5531.335246284910681 ] } },
{ "type": "Feature", "properties": { "ACCESSNAME": "Wonderland Lake", "ACCESSID": "407a", "ACCESSTYPE": "TH", "CLASS": "T2", "FEE": "No", "AKA": null, "RESTROOMS": "No", "PICNIC": "No", "FISHING": "Yes", "ADDRESS": "4201 N. Broadway", "BIKERACK": "Yes", "BIKETRAIL": "Yes", "DOGTUBE": 0, "GRILLS": "No", "TRASHCANS": 1, "PARKSPACES": 20, "HORSETRAILERPARKING": "Not Recommended", "RECYCLEBIN": "No", "DOGCOMPOST": "Yes", "THURL": "https://bouldercolorado.gov/trailhead/wonderland-lake", "FOODCOMPOST": "No", "MAINTENANCEZONE": "North", "THLEASH": "Yes", "OBJECTID": 36 }, "geometry": { "type": "Point", "coordinates": [ -105.282419806564675, 40.050862768816422, 5509.602946284911013 ] } },
{ "type": "Feature", "properties": { "ACCESSNAME": "Sawhill Ponds", "ACCESSID": "508c", "ACCESSTYPE": "TH", "CLASS": "T3", "FEE": "No", "AKA": null, "RESTROOMS": "Yes", "PICNIC": "Yes", "FISHING": "Yes", "ADDRESS": "3400 75th St", "BIKERACK": "Yes", "BIKETRAIL": "No", "DOGTUBE": 0, "GRILLS": "No", "TRASHCANS": 2, "PARKSPACES": 25, "HORSETRAILERPARKING": "Possible", "RECYCLEBIN": "No", "DOGCOMPOST": "Yes", "THURL": "https://bouldercolorado.gov/trailhead/sawhill-ponds", "FOODCOMPOST": "No", "MAINTENANCEZONE": "North", "THLEASH": "Yes", "OBJECTID": 37 }, "geometry": { "type": "Point", "coordinates": [ -105.185064489590914, 40.039535069460285, 5134.759946284910257 ] } },
{ "type": "Feature", "properties": { "ACCESSNAME": "Dry Creek", "ACCESSID": "514", "ACCESSTYPE": "TH", "CLASS": "T2", "FEE": "No", "AKA": null, "RESTROOMS": "No", "PICNIC": "Yes", "FISHING": "No", "ADDRESS": "6802 Baseline Rd", "BIKERACK": "Yes", "BIKETRAIL": "No", "DOGTUBE": 0, "GRILLS": "No", "TRASHCANS": 3, "PARKSPACES": 21, "HORSETRAILERPARKING": "Possible", "RECYCLEBIN": "Yes", "DOGCOMPOST": "Yes", "THURL": "https://bouldercolorado.gov/trailhead/dry-creek", "FOODCOMPOST": "No", "MAINTENANCEZONE": "South", "THLEASH": "Yes", "OBJECTID": 39 }, "geometry": { "type": "Point", "coordinates": [ -105.190931236324801, 39.999663734107294, 5274.398246284908964 ] } },
{ "type": "Feature", "properties": { "ACCESSNAME": "Cherryvale", "ACCESSID": "513", "ACCESSTYPE": "TH", "CLASS": "T1", "FEE": "No", "AKA": null, "RESTROOMS": "No", "PICNIC": "No", "FISHING": "No", "ADDRESS": "66 S. Cherryvale Rd", "BIKERACK": "Yes", "BIKETRAIL": "Yes", "DOGTUBE": 1, "GRILLS": "No", "TRASHCANS": 1, "PARKSPACES": 50, "HORSETRAILERPARKING": "Pull Through", "RECYCLEBIN": "Yes", "DOGCOMPOST": "No", "THURL": "https://bouldercolorado.gov/trailhead/cherryvale", "FOODCOMPOST": "No", "MAINTENANCEZONE": "South", "THLEASH": "Yes", "OBJECTID": 40 }, "geometry": { "type": "Point", "coordinates": [ -105.21455670934472, 39.982766934608563, 5363.643546284911281 ] } },
{ "type": "Feature", "properties": { "ACCESSNAME": "Chautauqua", "ACCESSID": "250", "ACCESSTYPE": "TH", "CLASS": "T3", "FEE": "No", "AKA": null, "RESTROOMS": "Yes", "PICNIC": "Yes", "FISHING": "No", "ADDRESS": "900 Baseline", "BIKERACK": "Yes", "BIKETRAIL": "No", "DOGTUBE": 0, "GRILLS": "No", "TRASHCANS": 2, "PARKSPACES": 58, "HORSETRAILERPARKING": "Not Recommended", "RECYCLEBIN": "Yes", "DOGCOMPOST": "Yes", "THURL": "https://bouldercolorado.gov/trailhead/chautauqua", "FOODCOMPOST": "Yes", "MAINTENANCEZONE": "South", "THLEASH": "Yes", "OBJECTID": 41 }, "geometry": { "type": "Point", "coordinates": [ -105.282737367931702, 39.998875966200231, 5685.514246284910769 ] } },
{ "type": "Feature", "properties": { "ACCESSNAME": "Enchanted Mesa", "ACCESSID": "245", "ACCESSTYPE": "TH", "CLASS": "T2", "FEE": "No", "AKA": null, "RESTROOMS": "No", "PICNIC": "Yes", "FISHING": "No", "ADDRESS": "198 Morning Glory Dr", "BIKERACK": "Yes", "BIKETRAIL": "No", "DOGTUBE": 1, "GRILLS": "Yes", "TRASHCANS": 1, "PARKSPACES": 0, "HORSETRAILERPARKING": "Not Recommended", "RECYCLEBIN": "Yes", "DOGCOMPOST": "No", "THURL": "https://bouldercolorado.gov/trailhead/enchanted-mesa", "FOODCOMPOST": "Yes", "MAINTENANCEZONE": "South", "THLEASH": "Yes", "OBJECTID": 42 }, "geometry": { "type": "Point", "coordinates": [ -105.280201468732443, 39.997301698774429, 5727.635246284909954 ] } },
{ "type": "Feature", "properties": { "ACCESSNAME": "Gregory Canyon", "ACCESSID": "263", "ACCESSTYPE": "TH", "CLASS": "T3", "FEE": "Yes", "AKA": null, "RESTROOMS": "Yes", "PICNIC": "No", "FISHING": "No", "ADDRESS": "171 Flagstaff Rd", "BIKERACK": "Yes", "BIKETRAIL": "No", "DOGTUBE": 0, "GRILLS": "No", "TRASHCANS": 1, "PARKSPACES": 8, "HORSETRAILERPARKING": "Not Recommended", "RECYCLEBIN": "No", "DOGCOMPOST": "No", "THURL": "https://bouldercolorado.gov/trailhead/gregory-canyon", "FOODCOMPOST": "No", "MAINTENANCEZONE": "South", "THLEASH": "Yes", "OBJECTID": 43 }, "geometry": { "type": "Point", "coordinates": [ -105.292637821639133, 39.997511364415985, 5800.620546284910233 ] } },
{ "type": "Feature", "properties": { "ACCESSNAME": "NCAR", "ACCESSID": "235", "ACCESSTYPE": "TH", "CLASS": "T1", "FEE": "No", "AKA": null, "RESTROOMS": "No", "PICNIC": "No", "FISHING": "No", "ADDRESS": "1850 Table Mesa Dr", "BIKERACK": "No", "BIKETRAIL": "No", "DOGTUBE": 0, "GRILLS": "No", "TRASHCANS": 1, "PARKSPACES": 1, "HORSETRAILERPARKING": "Not Allowed", "RECYCLEBIN": "No", "DOGCOMPOST": "No", "THURL": "https://bouldercolorado.gov/trailhead/ncar", "FOODCOMPOST": "No", "MAINTENANCEZONE": "South", "THLEASH": "Yes", "OBJECTID": 44 }, "geometry": { "type": "Point", "coordinates": [ -105.275468600347139, 39.978708040831251, 6110.051346284908504 ] } },
{ "type": "Feature", "properties": { "ACCESSNAME": "South Boulder Creek West", "ACCESSID": "210", "ACCESSTYPE": "TH", "CLASS": "T3", "FEE": "Yes", "AKA": "Thomas Lane", "RESTROOMS": "Yes", "PICNIC": "Yes", "FISHING": "No", "ADDRESS": "1405 South Foothills Hwy.", "BIKERACK": "Yes", "BIKETRAIL": "No", "DOGTUBE": 0, "GRILLS": "No", "TRASHCANS": 1, "PARKSPACES": 32, "HORSETRAILERPARKING": "Designated x 2", "RECYCLEBIN": "Yes", "DOGCOMPOST": "Yes", "THURL": "https://bouldercolorado.gov/trailhead/south-boulder-creek-west", "FOODCOMPOST": "Yes", "MAINTENANCEZONE": "South", "THLEASH": "Yes", "OBJECTID": 45 }, "geometry": { "type": "Point", "coordinates": [ -105.236800676081813, 39.960252524265584, 5458.290046284910204 ] } },
{ "type": "Feature", "properties": { "ACCESSNAME": "Lost Gulch Overlook", "ACCESSID": "957", "ACCESSTYPE": "TH", "CLASS": "T3", "FEE": "Yes", "AKA": null, "RESTROOMS": "No", "PICNIC": "Yes", "FISHING": "No", "ADDRESS": "None", "BIKERACK": "Yes", "BIKETRAIL": "No", "DOGTUBE": 0, "GRILLS": "No", "TRASHCANS": 1, "PARKSPACES": 15, "HORSETRAILERPARKING": "NA", "RECYCLEBIN": "Yes", "DOGCOMPOST": "No", "THURL": "https://bouldercolorado.gov/trailhead/lost-gulch-overlook", "FOODCOMPOST": "No", "MAINTENANCEZONE": "South", "THLEASH": "Yes", "OBJECTID": 46 }, "geometry": { "type": "Point", "coordinates": [ -105.319427299342038, 39.991164141964234, 7337.955846284909057 ] } },
{ "type": "Feature", "properties": { "ACCESSNAME": "Panorama Point", "ACCESSID": "283", "ACCESSTYPE": "TH", "CLASS": "T3", "FEE": "Yes", "AKA": "Pano", "RESTROOMS": "No", "PICNIC": "Yes", "FISHING": "No", "ADDRESS": "1000 Flagstaff Rd", "BIKERACK": "Yes", "BIKETRAIL": "No", "DOGTUBE": 1, "GRILLS": "Yes", "TRASHCANS": 2, "PARKSPACES": 11, "HORSETRAILERPARKING": "Not Recommended", "RECYCLEBIN": "Yes", "DOGCOMPOST": "No", "THURL": "https://bouldercolorado.gov/trailhead/panorama-point", "FOODCOMPOST": "Yes", "MAINTENANCEZONE": "South", "THLEASH": "Yes", "OBJECTID": 47 }, "geometry": { "type": "Point", "coordinates": [ -105.292884745967214, 40.005964548099783, 5971.232646284908697 ] } },
{ "type": "Feature", "properties": { "ACCESSNAME": "Crown Rock", "ACCESSID": "282", "ACCESSTYPE": "TH", "CLASS": "T3", "FEE": "Yes", "AKA": null, "RESTROOMS": "Yes", "PICNIC": "Yes", "FISHING": "No", "ADDRESS": "2100 Flagstaff Rd", "BIKERACK": "Yes", "BIKETRAIL": "No", "DOGTUBE": 0, "GRILLS": "No", "TRASHCANS": 1, "PARKSPACES": 7, "HORSETRAILERPARKING": "Not Recommended", "RECYCLEBIN": "Yes", "DOGCOMPOST": "No", "THURL": "https://bouldercolorado.gov/trailhead/crown-rock", "FOODCOMPOST": "Yes", "MAINTENANCEZONE": "South", "THLEASH": "Yes", "OBJECTID": 48 }, "geometry": { "type": "Point", "coordinates": [ -105.297069514381647, 40.001781454750443, 6334.118746284908411 ] } },
{ "type": "Feature", "properties": { "ACCESSNAME": "Greenbelt Plateau", "ACCESSID": "103", "ACCESSTYPE": "TH", "CLASS": "T1", "FEE": "Yes", "AKA": null, "RESTROOMS": "No", "PICNIC": "No", "FISHING": "No", "ADDRESS": "5101 Highway 128", "BIKERACK": "Yes", "BIKETRAIL": "Yes", "DOGTUBE": 1, "GRILLS": "No", "TRASHCANS": 1, "PARKSPACES": 25, "HORSETRAILERPARKING": "Possible", "RECYCLEBIN": "No", "DOGCOMPOST": "No", "THURL": "https://bouldercolorado.gov/trailhead/greenbelt-plateau", "FOODCOMPOST": "No", "MAINTENANCEZONE": "South", "THLEASH": "Yes", "OBJECTID": 49 }, "geometry": { "type": "Point", "coordinates": [ -105.233410233616894, 39.928631831031602, 5890.130946284909442 ] } },
{ "type": "Feature", "properties": { "ACCESSNAME": "Marshall Mesa", "ACCESSID": "106", "ACCESSTYPE": "TH", "CLASS": "T3", "FEE": "Yes", "AKA": null, "RESTROOMS": "Yes", "PICNIC": "Yes", "FISHING": "No", "ADDRESS": "5258 E. Eldorado Springs Dr", "BIKERACK": "Yes", "BIKETRAIL": "Yes", "DOGTUBE": 0, "GRILLS": "No", "TRASHCANS": 4, "PARKSPACES": 54, "HORSETRAILERPARKING": "Designated x 4", "RECYCLEBIN": "Yes", "DOGCOMPOST": "Yes", "THURL": "https://bouldercolorado.gov/trailhead/marshall-mesa", "FOODCOMPOST": "Yes", "MAINTENANCEZONE": "South", "THLEASH": "Yes", "OBJECTID": 50 }, "geometry": { "type": "Point", "coordinates": [ -105.23140971159998, 39.953084879647882, 0.000046284909331 ] } },
{ "type": "Feature", "properties": { "ACCESSNAME": "Flatirons Vista", "ACCESSID": "116", "ACCESSTYPE": "TH", "CLASS": "T1", "FEE": "Yes", "AKA": null, "RESTROOMS": "Yes", "PICNIC": "No", "FISHING": "No", "ADDRESS": "3663 State Hwy. 93", "BIKERACK": "Yes", "BIKETRAIL": "Yes", "DOGTUBE": 1, "GRILLS": "No", "TRASHCANS": 1, "PARKSPACES": 29, "HORSETRAILERPARKING": "Designated x 3", "RECYCLEBIN": "No", "DOGCOMPOST": "No", "THURL": "https://bouldercolorado.gov/trailhead/flatirons-vista", "FOODCOMPOST": "No", "MAINTENANCEZONE": "South", "THLEASH": "Yes", "OBJECTID": 51 }, "geometry": { "type": "Point", "coordinates": [ -105.235034629202715, 39.923962026207114, 5909.391846284910571 ] } },
{ "type": "Feature", "properties": { "ACCESSNAME": "Fourth of July", "ACCESSID": "1001", "ACCESSTYPE": "TH", "CLASS": "T3", "FEE": "No", "AKA": null, "RESTROOMS": "Yes", "PICNIC": "Yes", "FISHING": "Yes", "ADDRESS": "4800 4th of July Rd", "BIKERACK": "Yes", "BIKETRAIL": "Yes", "DOGTUBE": 0, "GRILLS": "No", "TRASHCANS": 2, "PARKSPACES": 30, "HORSETRAILERPARKING": "Possible", "RECYCLEBIN": "No", "DOGCOMPOST": "No", "THURL": "https://bouldercolorado.gov/trailhead/fourth-july", "FOODCOMPOST": "No", "MAINTENANCEZONE": "North", "THLEASH": "Yes", "OBJECTID": 54 }, "geometry": { "type": "Point", "coordinates": [ -105.634419431544146, 39.995048337811319, 0.000046284909331 ] } },
{ "type": "Feature", "properties": { "ACCESSNAME": "Halfway House", "ACCESSID": "284", "ACCESSTYPE": "TH", "CLASS": "T1", "FEE": "Yes", "AKA": null, "RESTROOMS": "Yes", "PICNIC": "Yes", "FISHING": "No", "ADDRESS": "1100 Flagstaff Rd", "BIKERACK": "Yes", "BIKETRAIL": "No", "DOGTUBE": 1, "GRILLS": "Yes", "TRASHCANS": 1, "PARKSPACES": 12, "HORSETRAILERPARKING": "Not Recommended", "RECYCLEBIN": "No", "DOGCOMPOST": "No", "THURL": "https://bouldercolorado.gov/trailhead/halfway-house", "FOODCOMPOST": "Yes", "MAINTENANCEZONE": "South", "THLEASH": "Yes", "OBJECTID": 91 }, "geometry": { "type": "Point", "coordinates": [ -105.29455580411782, 40.006500874789076, 6043.558346284909931 ] } },
{ "type": "Feature", "properties": { "ACCESSNAME": "Realization Point", "ACCESSID": "272", "ACCESSTYPE": "TH", "CLASS": "T2", "FEE": "Yes", "AKA": null, "RESTROOMS": "No", "PICNIC": "Yes", "FISHING": "No", "ADDRESS": "3400 Flagstaff Rd", "BIKERACK": "Yes", "BIKETRAIL": "No", "DOGTUBE": 1, "GRILLS": "No", "TRASHCANS": 1, "PARKSPACES": 17, "HORSETRAILERPARKING": "Not Recommended", "RECYCLEBIN": "No", "DOGCOMPOST": "No", "THURL": "https://bouldercolorado.gov/trailhead/realization-point", "FOODCOMPOST": "No", "MAINTENANCEZONE": "South", "THLEASH": "Yes", "OBJECTID": 92 }, "geometry": { "type": "Point", "coordinates": [ -105.309072778527963, 39.997336386024934, 6755.25504628491035 ] } },
{ "type": "Feature", "properties": { "ACCESSNAME": "South Mesa", "ACCESSID": "201", "ACCESSTYPE": "TH", "CLASS": "T3", "FEE": "Yes", "AKA": null, "RESTROOMS": "Yes", "PICNIC": "Yes", "FISHING": "No", "ADDRESS": "4111 Eldorado Springs Dr.", "BIKERACK": "Yes", "BIKETRAIL": "No", "DOGTUBE": 0, "GRILLS": "No", "TRASHCANS": 4, "PARKSPACES": 58, "HORSETRAILERPARKING": "Possible", "RECYCLEBIN": "Yes", "DOGCOMPOST": "Yes", "THURL": "https://bouldercolorado.gov/trailhead/south-mesa", "FOODCOMPOST": "Yes", "MAINTENANCEZONE": "South", "THLEASH": "Yes", "OBJECTID": 94 }, "geometry": { "type": "Point", "coordinates": [ -105.258057474217509, 39.938594677504938, 5621.421846284909407 ] } },
{ "type": "Feature", "properties": { "ACCESSNAME": "Doudy Draw", "ACCESSID": "101", "ACCESSTYPE": "TH", "CLASS": "T1", "FEE": "Yes", "AKA": null, "RESTROOMS": "No", "PICNIC": "No", "FISHING": "No", "ADDRESS": "4100 Eldorado Springs Dr.", "BIKERACK": "Yes", "BIKETRAIL": "Yes", "DOGTUBE": 1, "GRILLS": "No", "TRASHCANS": 1, "PARKSPACES": 37, "HORSETRAILERPARKING": "Designated x 3", "RECYCLEBIN": "Yes", "DOGCOMPOST": "No", "THURL": "https://bouldercolorado.gov/trailhead/doudy-draw", "FOODCOMPOST": "No", "MAINTENANCEZONE": "South", "THLEASH": "Yes", "OBJECTID": 95 }, "geometry": { "type": "Point", "coordinates": [ -105.256649473182662, 39.938244499783984, 5633.500546284911252 ] } },
{ "type": "Feature", "properties": { "ACCESSNAME": "Chapman Drive", "ACCESSID": "297", "ACCESSTYPE": "TH", "CLASS": "T1", "FEE": "No", "AKA": null, "RESTROOMS": "No", "PICNIC": "No", "FISHING": "No", "ADDRESS": "38474 Boulder Canyon Drive", "BIKERACK": "Yes", "BIKETRAIL": "Yes", "DOGTUBE": 0, "GRILLS": "No", "TRASHCANS": 1, "PARKSPACES": 11, "HORSETRAILERPARKING": "Possible", "RECYCLEBIN": "Yes", "DOGCOMPOST": "No", "THURL": "https://bouldercolorado.gov/trailhead/chapman-drive", "FOODCOMPOST": "No", "MAINTENANCEZONE": "North", "THLEASH": "Yes", "OBJECTID": 110 }, "geometry": { "type": "Point", "coordinates": [ -105.325313833500857, 40.008849834484643, 0.000046284909331 ] } },
{ "type": "Feature", "properties": { "ACCESSNAME": "Joder Ranch", "ACCESSID": "418", "ACCESSTYPE": "TH", "CLASS": "T1", "FEE": "No", "AKA": null, "RESTROOMS": "No", "PICNIC": "No", "FISHING": "No", "ADDRESS": "None", "BIKERACK": "Yes", "BIKETRAIL": "Yes", "DOGTUBE": 0, "GRILLS": "No", "TRASHCANS": 1, "PARKSPACES": 6, "HORSETRAILERPARKING": "Designated x 2", "RECYCLEBIN": "Yes", "DOGCOMPOST": "Yes", "THURL": "https://bouldercolorado.gov/trailhead/joder-ranch", "FOODCOMPOST": "No", "MAINTENANCEZONE": "North", "THLEASH": "Yes", "OBJECTID": 111 }, "geometry": { "type": "Point", "coordinates": [ -105.282606453270816, 40.110147443506932, 0.000046284909331 ] } },
{ "type": "Feature", "properties": { "ACCESSNAME": "Bobolink", "ACCESSID": "512", "ACCESSTYPE": "TH", "CLASS": "T2", "FEE": "No", "AKA": "Bobo", "RESTROOMS": "No", "PICNIC": "Yes", "FISHING": "Yes", "ADDRESS": "5880 Baseline Rd", "BIKERACK": "Yes", "BIKETRAIL": "Yes", "DOGTUBE": 0, "GRILLS": "No", "TRASHCANS": 2, "PARKSPACES": 17, "HORSETRAILERPARKING": "Possible", "RECYCLEBIN": "Yes", "DOGCOMPOST": "Yes", "THURL": "https://bouldercolorado.gov/trailhead/bobolink", "FOODCOMPOST": "No", "MAINTENANCEZONE": "South", "THLEASH": "Yes", "OBJECTID": 123 }, "geometry": { "type": "Point", "coordinates": [ -105.2148386806102, 39.999889413274062, 5279.139246284910769 ] } }
]
}
